NORAD_CAT_ID,OBJECT_NAME,OBJECT_TYPE,EPOCH,MEAN_MOTION,ECCENTRICITY,INCLINATION,RA_OF_ASC_NODE,ARG_OF_PERICENTER,MEAN_ANOMALY,BSTAR,MEAN_MOTION_DOT,MEAN_MOTION_DDOT,TLE_LINE0,TLE_LINE1,TLE_LINE2,SEMIMAJOR_AXIS,PERIOD,APOGEE,PERIGEE,DECAYED
53635.0,STARLINK-4587,PAYLOAD,2023-04-24 08:54:28,15.08848588,0.0001002,53.2165,259.1272,70.9872,289.1228,0.00028258,4.213e-05,0.0,0 STARLINK-4587,1 53635U 22104AZ  23114.37116041  .00004213  00000-0  28258-3 0  9993,2 53635  53.2165 259.1272 0001002  70.9872 289.1228 15.08848588 37669,6917.854,95.437,540.412,539.026,0.0
53635.0,STARLINK-4587,PAYLOAD,2023-04-25 02:23:43,15.08838439,0.0001018,53.2159,255.8561,73.4644,286.646,1.5502e-05,-4.1e-07,0.0,0 STARLINK-4587,1 53635U 22104AZ  23115.09980525 -.00000041  00000-0  15502-4 0  9994,2 53635  53.2159 255.8561 0001018  73.4644 286.6460 15.08838439 36751,6917.885,95.438,540.454,539.046,0.0
53635.0,STARLINK-4587,PAYLOAD,2023-04-25 08:45:15,15.08836093,0.0001156,53.2153,254.667,74.4764,285.6356,-1.714e-05,-5.61e-06,0.0,0 STARLINK-4587,1 53635U 22104AZ  23115.36476732 -.00000561  00000-0 -17140-4 0  9992,2 53635  53.2153 254.6670 0001156  74.4764 285.6356 15.08836093 37815,6917.892,95.438,540.557,538.958,0.0
53635.0,STARLINK-4587,PAYLOAD,2023-04-26 11:46:49,15.0883797,0.0001144,53.2145,249.6127,77.2746,282.8374,-0.0001032,-1.93e-05,0.0,0 STARLINK-4587,1 53635U 22104AZ  23116.49084959 -.00001930  00000-0 -10320-3 0  9996,2 53635  53.2145 249.6127 0001144  77.2746 282.8374 15.08837970 37987,6917.887,95.438,540.543,538.96,0.0
53635.0,STARLINK-4587,PAYLOAD,2023-04-26 18:08:21,15.08854303,0.0001136,53.2147,248.4233,86.8316,273.2806,-0.00060766,-9.949e-05,0.0,0 STARLINK-4587,1 53635U 22104AZ  23116.75580003 -.00009949  00000-0 -60766-3 0  9993,2 53635  53.2147 248.4233 0001136  86.8316 273.2806 15.08854303 38023,6917.837,95.437,540.488,538.916,0.0
53635.0,STARLINK-4587,PAYLOAD,2023-04-27 02:05:17,15.08834922,9.34e-05,53.2157,246.9365,77.2402,282.8695,0.00012303,1.671e-05,0.0,0 STARLINK-4587,1 53635U 22104AZ  23117.08701339  .00001671  00000-0  12303-3 0  9993,2 53635  53.2157 246.9365 0000934  77.2402 282.8695 15.08834922 37057,6917.896,95.438,540.407,539.115,0.0
53635.0,STARLINK-4587,PAYLOAD,2023-04-27 11:37:36,15.08835242,8.98e-05,53.2161,245.1517,78.032,282.0773,0.00017056,2.427e-05,0.0,0 STARLINK-4587,1 53635U 22104AZ  23117.48445401  .00002427  00000-0  17056-3 0  9992,2 53635  53.2161 245.1517 0000898  78.0320 282.0773 15.08835242 38134,6917.895,95.438,540.381,539.139,0.0
53635.0,STARLINK-4587,PAYLOAD,2023-04-28 01:56:05,15.08804244,7.41e-05,53.2167,242.4758,79.5742,280.5334,0.00077626,0.00012076,0.0,0 STARLINK-4587,1 53635U 22104AZ  23118.08062293  .00012076  00000-0  77626-3 0  9993,2 53635  53.2167 242.4758 0000741  79.5742 280.5334 15.08804244 37209,6917.99,95.44,540.367,539.342,0.0
53635.0,STARLINK-4587,PAYLOAD,2023-04-28 11:28:23,15.08845495,9.16e-05,53.2168,240.6913,75.339,284.7704,0.00019317,2.788e-05,0.0,0 STARLINK-4587,1 53635U 22104AZ  23118.47804909  .00002788  00000-0  19317-3 0  9996,2 53635  53.2168 240.6913 0000916  75.3390 284.7704 15.08845495 37266,6917.864,95.437,540.362,539.095,0.0
53635.0,STARLINK-4587,PAYLOAD,2023-04-29 12:54:33,15.08843302,0.0001015,53.2157,235.934,70.688,289.4222,5.1958e-05,5.39e-06,0.0,0 STARLINK-4587,1 53635U 22104AZ  23119.53788927  .00000539  00000-0  51958-4 0  9995,2 53635  53.2157 235.9340 0001015  70.6880 289.4222 15.08843302 37428,6917.87,95.437,540.437,539.033,0.0
53635.0,STARLINK-4587,PAYLOAD,2023-04-30 12:45:20,15.0884119,0.000107,53.2167,231.4733,74.4404,285.6706,-2.2719e-05,-6.49e-06,0.0,0 STARLINK-4587,1 53635U 22104AZ  23120.53149057 -.00000649  00000-0 -22719-4 0  9999,2 53635  53.2167 231.4733 0001070  74.4404 285.6706 15.08841190 38598,6917.877,95.437,540.482,539.002,0.0
53635.0,STARLINK-4587,PAYLOAD,2023-04-30 14:20:43,15.08840255,0.0001091,53.2169,231.1762,75.791,284.3203,-2.2291e-05,-6.43e-06,0.0,0 STARLINK-4587,1 53635U 22104AZ  23120.59773086 -.00000643  00000-0 -22291-4 0  9999,2 53635  53.2169 231.1762 0001091  75.7910 284.3203 15.08840255 37585,6917.88,95.438,540.499,538.99,0.0
53635.0,STARLINK-4587,PAYLOAD,2023-05-01 12:36:08,15.08835158,0.000107,53.2168,227.0124,80.5663,279.545,4.6583e-06,-2.14e-06,0.0,0 STARLINK-4587,1 53635U 22104AZ  23121.52509375 -.00000214  00000-0  46583-5 0  9995,2 53635  53.2168 227.0124 0001070  80.5663 279.5450 15.08835158 38741,6917.895,95.438,540.5,539.02,0.0
53635.0,STARLINK-4587,PAYLOAD,2023-05-01 17:22:17,15.08836044,0.000107,53.2168,226.1204,78.269,281.8423,9.5786e-06,-1.35e-06,0.0,0 STARLINK-4587,1 53635U 22104AZ  23121.72381356 -.00000135  00000-0  95786-5 0  9995,2 53635  53.2168 226.1204 0001070  78.2690 281.8423 15.08836044 37755,6917.892,95.438,540.498,539.017,0.0
53635.0,STARLINK-4587,PAYLOAD,2023-05-02 12:26:55,15.08835746,0.0001032,53.2167,222.5516,79.5072,280.6037,3.6432e-05,2.92e-06,0.0,0 STARLINK-4587,1 53635U 22104AZ  23122.51869520  .00000292  00000-0  36432-4 0  9992,2 53635  53.2167 222.5516 0001032  79.5072 280.6037 15.08835746 38898,6917.893,95.438,540.472,539.044,0.0
53635.0,STARLINK-4587,PAYLOAD,2023-05-02 15:37:41,15.08836184,0.0001038,53.2167,221.957,77.6374,282.4734,3.8086e-05,3.18e-06,0.0,0 STARLINK-4587,1 53635U 22104AZ  23122.65117526  .00000318  00000-0  38086-4 0  9995,2 53635  53.2167 221.9570 0001038  77.6374 282.4734 15.08836184 38915,6917.892,95.438,540.475,539.039,0.0
53635.0,STARLINK-4587,PAYLOAD,2023-05-02 23:34:37,15.08838103,0.0001037,53.2169,220.4709,75.2063,284.9044,5.3085e-05,5.57e-06,0.0,0 STARLINK-4587,1 53635U 22104AZ  23122.98237429  .00000557  00000-0  53085-4 0  9997,2 53635  53.2169 220.4709 0001037  75.2063 284.9044 15.08838103 37949,6917.886,95.438,540.469,539.034,0.0
53635.0,STARLINK-4587,PAYLOAD,2023-05-03 13:53:05,15.08839808,9.96e-05,53.2167,217.7953,75.3812,284.729,7.3524e-05,8.83e-06,0.0,0 STARLINK-4587,1 53635U 22104AZ  23123.57853345  .00000883  00000-0  73524-4 0  9996,2 53635  53.2167 217.7953 0000996  75.3812 284.7290 15.08839808 39051,6917.881,95.438,540.435,539.057,0.0
53635.0,STARLINK-4587,PAYLOAD,2023-05-03 15:28:28,15.08840452,9.87e-05,53.2165,217.4972,73.6544,286.4557,7.6666e-05,9.33e-06,0.0,0 STARLINK-4587,1 53635U 22104AZ  23123.64477291  .00000933  00000-0  76666-4 0  9992,2 53635  53.2165 217.4972 0000987  73.6544 286.4557 15.08840452 39063,6917.879,95.438,540.427,539.061,0.0
53635.0,STARLINK-4587,PAYLOAD,2023-05-04 12:08:29,15.08840037,0.0001002,53.2164,213.6318,72.3801,287.73,4.932e-05,4.97e-06,0.0,0 STARLINK-4587,1 53635U 22104AZ  23124.50589457  .00000497  00000-0  49320-4 0  9998,2 53635  53.2164 213.6318 0001002  72.3801 287.7300 15.08840037 39198,6917.88,95.438,540.438,539.052,0.0
53635.0,STARLINK-4587,PAYLOAD,2023-05-05 11:59:16,15.08841531,0.0001037,53.2161,209.1715,70.6852,289.4252,2.6952e-05,1.41e-06,0.0,0 STARLINK-4587,1 53635U 22104AZ  23125.49949362  .00000141  00000-0  26952-4 0  9994,2 53635  53.2161 209.1715 0001037  70.6852 289.4252 15.08841531 39343,6917.876,95.437,540.458,539.023,0.0
53635.0,STARLINK-4587,PAYLOAD,2023-05-05 23:06:58,15.08841253,0.0001038,53.216,207.0898,70.3407,289.7697,3.0409e-05,1.96e-06,0.0,0 STARLINK-4587,1 53635U 22104AZ  23125.96317324  .00000196  00000-0  30409-4 0  9995,2 53635  53.2160 207.0898 0001038  70.3407 289.7697 15.08841253 38396,6917.877,95.437,540.46,539.023,0.0
53635.0,STARLINK-4587,PAYLOAD,2023-05-06 11:50:03,15.08840302,0.0001032,53.2159,204.7106,73.9761,286.1345,4.1538e-05,3.73e-06,0.0,0 STARLINK-4587,1 53635U 22104AZ  23126.49309427  .00000373  00000-0  41538-4 0  9991,2 53635  53.2159 204.7106 0001032  73.9761 286.1345 15.08840302 39493,6917.879,95.438,540.458,539.031,0.0
53635.0,STARLINK-4587,PAYLOAD,2023-05-07 11:40:50,15.08840813,9.95e-05,53.2158,200.2496,78.3865,281.7239,4.8491e-05,4.84e-06,0.0,0 STARLINK-4587,1 53635U 22104AZ  23127.48669290  .00000484  00000-0  48491-4 0  9996,2 53635  53.2158 200.2496 0000995  78.3865 281.7239 15.08840813 38620,6917.878,95.438,540.431,539.055,0.0
53635.0,STARLINK-4587,PAYLOAD,2023-05-07 21:13:09,15.08837477,0.000104,53.2157,198.4657,74.579,285.5317,1.9886e-05,2.9e-07,0.0,0 STARLINK-4587,1 53635U 22104AZ  23127.88413626  .00000029  00000-0  19886-4 0  9991,2 53635  53.2157 198.4657 0001040  74.5790 285.5317 15.08837477 39704,6917.888,95.438,540.473,539.034,0.0
53635.0,STARLINK-4587,PAYLOAD,2023-05-08 11:31:37,15.08834671,0.0001033,53.2156,195.7896,74.0256,286.085,1.059e-05,-1.19e-06,0.0,0 STARLINK-4587,1 53635U 22104AZ  23128.48029984 -.00000119  00000-0  10590-4 0  9992,2 53635  53.2156 195.7896 0001033  74.0256 286.0850 15.08834671 38779,6917.897,95.438,540.476,539.047,0.0
53635.0,STARLINK-4587,PAYLOAD,2023-05-09 09:47:01,15.08838304,0.0001005,53.2153,191.6268,77.4201,282.6904,3.6565e-05,2.94e-06,0.0,0 STARLINK-4587,1 53635U 22104AZ  23129.40765806  .00000294  00000-0  36565-4 0  9998,2 53635  53.2153 191.6268 0001005  77.4201 282.6904 15.08838304 39938,6917.886,95.438,540.446,539.055,0.0
53635.0,STARLINK-4587,PAYLOAD,2023-05-10 12:48:35,15.08837073,9.93e-05,53.2161,186.5716,73.9379,286.1722,3.7315e-05,3.06e-06,0.0,0 STARLINK-4587,1 53635U 22104AZ  23130.53374205  .00000306  00000-0  37315-4 0  9991,2 53635  53.2161 186.5716 0000993  73.9379 286.1722 15.08837073 40100,6917.889,95.438,540.441,539.067,0.0
53635.0,STARLINK-4587,PAYLOAD,2023-05-10 20:45:30,15.08837886,0.0001003,53.2161,185.0849,73.3279,286.7823,3.7153e-05,3.04e-06,0.0,0 STARLINK-4587,1 53635U 22104AZ  23130.86494207  .00000304  00000-0  37153-4 0  9990,2 53635  53.2161 185.0849 0001003  73.3279 286.7823 15.08837886 40152,6917.887,95.438,540.446,539.058,0.0
53635.0,STARLINK-4587,PAYLOAD,2023-05-11 11:03:59,15.08839424,0.0001023,53.216,182.4087,72.8231,287.2873,4.2704e-05,3.92e-06,0.0,0 STARLINK-4587,1 53635U 22104AZ  23131.46110162  .00000392  00000-0  42704-4 0  9997,2 53635  53.2160 182.4087 0001023  72.8231 287.2873 15.08839424 40241,6917.882,95.438,540.455,539.039,0.0
